DMSP 5D-3 F16 (USA 172) 
1 28054U 03048A   26159.32162448  .00000024  00000+0  36160-4 0  9992
2 28054  98.9892 183.0911 0007316 163.4747 253.0106 14.14482414168238
METEOSAT-9 (MSG-2)      
1 28912U 05049B   26158.97455412  .00000137  00000+0  00000+0 0  9998
2 28912   9.3397  54.2567 0001748 351.8629 246.7838  1.00268603  6907
DMSP 5D-3 F17 (USA 191) 
1 29522U 06050A   26159.26006678  .00000064  00000+0  55484-4 0  9998
2 29522  98.7377 166.0128 0011324  82.3081 277.9379 14.14991915 11167
FENGYUN 3A              
1 32958U 08026A   26159.30736006  .00000080  00000+0  58669-4 0  9996
2 32958  98.6881 100.3068 0009214 147.1254 213.0497 14.19569342934148
GOES 14                 
1 35491U 09033A   26159.21240211 -.00000239  00000+0  00000+0 0  9996
2 35491   1.6659  83.1525 0001969   4.2981  32.5904  1.00114135  6504
DMSP 5D-3 F18 (USA 210) 
1 35951U 09057A   26159.23084762  .00000248  00000+0  15144-3 0  9990
2 35951  98.9034 140.0196 0009877 278.1340  81.8712 14.14891748858325
EWS-G2 (GOES 15)        
1 36411U 10008A   26159.14836492  .00000034  00000+0  00000+0 0  9999
2 36411   1.2520  83.0108 0005488  37.9746 252.5669  1.00275825 59546
COMS 1                  
1 36744U 10032A   26154.99142485 -.00000334  00000+0  00000+0 0  9999
2 36744   4.7750  75.5286 0001016   4.5847 297.3769  1.00270643 50953
FENGYUN 3B              
1 37214U 10059A   26159.25719324  .00000203  00000+0  12817-3 0  9994
2 37214  98.9620 205.2337 0021433 209.8671 238.7933 14.14840525806161
SUOMI NPP               
1 37849U 11061A   26159.24783586  .00000068  00000+0  53410-4 0  9996
2 37849  98.7952 100.1851 0002018  26.4196 333.7082 14.19515549757175
METEOSAT-10 (MSG-3)     
1 38552U 12035B   26159.05851455  .00000010  00000+0  00000+0 0  9999
2 38552   4.6491  61.0583 0001633 335.2386 241.4327  1.00275787 50763
METOP-B                 
1 38771U 12049A   26159.24991992  .00000097  00000+0  64169-4 0  9995
2 38771  98.6507 210.9271 0002750  40.4394 319.6988 14.21430314711997
INSAT-3D                
1 39216U 13038B   26159.29805441 -.00000323  00000+0  00000+0 0  9999
2 39216   1.9021  82.6567 0000812 318.6495  92.1907  1.00274029 46998
FENGYUN 3C              
1 39260U 13052A   26159.28029455  .00000084  00000+0  63798-4 0  9997
2 39260  98.4975 133.5643 0015645  51.9301 308.3282 14.15753043657309
METEOR-M 2              
1 40069U 14037A   26159.27645156  .00000210  00000+0  11503-3 0  9998
2 40069  98.5115 135.3309 0007014  65.8839 294.3072 14.21459103618052
HIMAWARI-8              
1 40267U 14060A   26159.30030774 -.00000260  00000+0  00000+0 0  9994
2 40267   0.0241  60.5596 0000827  41.4262  43.4896  1.00270677 42678
FENGYUN 2G              
1 40367U 14090A   26158.79303955 -.00000288  00000+0  00000+0 0  9994
2 40367   5.6148  72.9276 0003376 153.3297  55.0224  1.00277410 41902
METEOSAT-11 (MSG-4)     
1 40732U 15034A   26159.27432664  .00000079  00000+0  00000+0 0  9990
2 40732   3.1800  71.1599 0001693   5.8925 287.8003  1.00277544  7128
ELEKTRO-L 2             
1 41105U 15074A   26159.05543303 -.00000103  00000+0  00000+0 0  9997
2 41105   6.6705  70.6343 0001134 284.8984 266.3917  1.00272046 38414
SENTINEL-3A             
1 41335U 16011A   26159.23994206  .00000103  00000+0  60696-4 0  9997
2 41335  98.6249 226.7517 0001348 104.4338 255.6992 14.26737558536780
INSAT-3DR               
1 41752U 16054A   26159.07324795 -.00000061  00000+0  00000+0 0  9991
2 41752   0.0818  87.6483 0010385 186.7487  82.4339  1.00270655 35724
HIMAWARI-9              
1 41836U 16064A   26159.30030774 -.00000259  00000+0  00000+0 0  9991
2 41836   0.0317 158.6712 0000870 317.7451  29.1608  1.00272860 35121
GOES 16                 
1 41866U 16071A   26159.25171122 -.00000075  00000+0  00000+0 0  9995
2 41866   0.3168  85.6172 0000457 315.2230 201.7536  1.00270713 35010
FENGYUN 4A              
1 41882U 16077A   26159.29692773 -.00000341  00000+0  00000+0 0  9999
2 41882   2.2994  80.3795 0008261 151.5371 255.4388  1.00274132 34847
CYGFM05                 
1 41884U 16078A   26159.13588581  .00021149  00000+0  29099-3 0  9997
2 41884  34.9577 320.5088 0006939  57.2733 302.8659 15.56264978527349
CYGFM04                 
1 41885U 16078B   26159.07040568  .00030386  00000+0  34874-3 0  9999
2 41885  34.9327 289.0859 0005960 104.2372 255.9016 15.61001382527577
CYGFM02                 
1 41886U 16078C   26158.76915223  .00034711  00000+0  35547-3 0  9998
2 41886  34.9410 285.9023 0006939 102.1457 258.0047 15.63886780527693
CYGFM01                 
1 41887U 16078D   26158.87202991  .00025246  00000+0  33868-3 0  9999
2 41887  34.9407 323.3879 0006911  47.7074 312.4235 15.56917446527257
CYGFM08                 
1 41888U 16078E   26158.71929494  .00029673  00000+0  36036-3 0  9995
2 41888  34.9437 304.2251 0007838  81.2519 278.9093 15.59518568527498
CYGFM07                 
1 41890U 16078G   26158.67904068  .00029729  00000+0  35980-3 0  9992
2 41890  34.9451 292.8440 0006345  98.7772 261.3672 15.59620790527518
CYGFM03                 
1 41891U 16078H   26158.77801366  .00027308  00000+0  33072-3 0  9992
2 41891  34.9404 294.1248 0005907  86.1053 274.0347 15.59618754527500
